{"type": "FeatureCollection", "features": [ {"type": "Feature", "properties": {"norad_id": 66805, "name": "STARLINK-36049", "group": "last-30-days", "lat": -42.79224503849342, "lon": 162.08679920638406, "alt_km": 314.6769549010269, "timestamp": "2025-12-13T18:50:03.174102+00:00", "meta": {"OBJECT_NAME": "STARLINK-36049", "OBJECT_ID": "2025-278Q", "EPOCH": "2025-12-13T02:34:04.423296", "MEAN_MOTION": 15.86735504, "ECCENTRICITY": 0.00054756, "INCLINATION": 42.9968, "RA_OF_ASC_NODE": 249.7806, "ARG_OF_PERICENTER": 256.6916, "MEAN_ANOMALY": 103.3347, "EPHEMERIS_TYPE": 0, "CLASSIFICATION_TYPE": "U", "NORAD_CAT_ID": 66805, "ELEMENT_SET_NO": 999, "REV_AT_EPOCH": 189, "BSTAR": -0.0037719056, "MEAN_MOTION_DOT": -0.00902717, "MEAN_MOTION_DDOT": 0}, "tle": {"line1": "1 66805U 25278Q   25347.10699564 -.00902717  00000+0 -37719-2 0  9996", "line2": "2 66805  42.9968 249.7806 0005475 256.6916 103.3347 15.86735504  1890"}}, "geometry": {"type": "Point", "coordinates": [162.08679920638406, -42.79224503849342]}}, {"type": "Feature", "properties": {"norad_id": 66806, "name": "STARLINK-36069", "group": "last-30-days", "lat": -38.9186077964304, "lon": -174.5143753952816, "alt_km": 280.7901033329108, "timestamp": "2025-12-13T18:50:03.174113+00:00", "meta": {"OBJECT_NAME": "STARLINK-36069", "OBJECT_ID": "2025-278R", "EPOCH": "2025-12-12T23:33:28.013472", "MEAN_MOTION": 15.89964578, "ECCENTRICITY": 0.00095169, "INCLINATION": 42.9955, "RA_OF_ASC_NODE": 250.5622, "ARG_OF_PERICENTER": 265.6965, "MEAN_ANOMALY": 94.2822, "EPHEMERIS_TYPE": 0, "CLASSIFICATION_TYPE": "U", "NORAD_CAT_ID": 66806, "ELEMENT_SET_NO": 999, "REV_AT_EPOCH": 187, "BSTAR": 0.012088276, "MEAN_MOTION_DOT": 0.03313883, "MEAN_MOTION_DDOT": 0.010113462}, "tle": {"line1": "1 66806U 25278R   25346.98157423  .03313883  10113-1  12088-1 0  9995", "line2": "2 66806  42.9955 250.5622 0009516 265.6965  94.2822 15.89964578  1879"}}, "geometry": {"type": "Point", "coordinates": [-174.5143753952816, -38.9186077964304]}}, {"type": "Feature", "properties": {"norad_id": 66807, "name": "STARLINK-36000", "group": "last-30-days", "lat": -42.372337188159676, "lon": 167.33381416181015, "alt_km": 319.1144650142296, "timestamp": "2025-12-13T18:50:03.174126+00:00", "meta": {"OBJECT_NAME": "STARLINK-36000", "OBJECT_ID": "2025-278S", "EPOCH": "2025-12-12T18:59:45.730464", "MEAN_MOTION": 15.88144314, "ECCENTRICITY": 0.00044665, "INCLINATION": 42.9973, "RA_OF_ASC_NODE": 251.7173, "ARG_OF_PERICENTER": 311.7795, "MEAN_ANOMALY": 48.2697, "EPHEMERIS_TYPE": 0, "CLASSIFICATION_TYPE": "U", "NORAD_CAT_ID": 66807, "ELEMENT_SET_NO": 999, "REV_AT_EPOCH": 184, "BSTAR": -0.0075543401, "MEAN_MOTION_DOT": -0.01841027, "MEAN_MOTION_DDOT": 0}, "tle": {"line1": "1 66807U 25278S   25346.79150151 -.01841027  00000+0 -75543-2 0  9990", "line2": "2 66807  42.9973 251.7173 0004466 311.7795  48.2697 15.88144314  1840"}}, "geometry": {"type": "Point", "coordinates": [167.33381416181015, -42.372337188159676]}}, {"type": "Feature", "properties": {"norad_id": 66808, "name": "STARLINK-36071", "group": "last-30-days", "lat": -42.05205422033767, "lon": 170.08603671067817, "alt_km": 312.1305262016849, "timestamp": "2025-12-13T18:50:03.174136+00:00", "meta": {"OBJECT_NAME": "STARLINK-36071", "OBJECT_ID": "2025-278T", "EPOCH": "2025-12-13T02:32:58.166592", "MEAN_MOTION": 15.86679573, "ECCENTRICITY": 0.00039268, "INCLINATION": 42.9971, "RA_OF_ASC_NODE": 249.7744, "ARG_OF_PERICENTER": 291.8108, "MEAN_ANOMALY": 68.2347, "EPHEMERIS_TYPE": 0, "CLASSIFICATION_TYPE": "U", "NORAD_CAT_ID": 66808, "ELEMENT_SET_NO": 999, "REV_AT_EPOCH": 189, "BSTAR": 0.00025751023, "MEAN_MOTION_DOT": 0.00067784, "MEAN_MOTION_DDOT": 0}, "tle": {"line1": "1 66808U 25278T   25347.10622878  .00067784  00000+0  25751-3 0  9991", "line2": "2 66808  42.9971 249.7744 0003926 291.8108  68.2347 15.86679573  1893"}}, "geometry": {"type": "Point", "coordinates": [170.08603671067817, -42.05205422033767]}}, {"type": "Feature", "properties": {"norad_id": 66809, "name": "STARLINK-35979", "group": "last-30-days", "lat": -39.66803847011647, "lon": -177.31899736419982, "alt_km": 314.7615396747906, "timestamp": "2025-12-13T18:50:03.174146+00:00", "meta": {"OBJECT_NAME": "STARLINK-35979", "OBJECT_ID": "2025-278U", "EPOCH": "2025-12-13T02:30:27.588672", "MEAN_MOTION": 15.86787624, "ECCENTRICITY": 0.00012538, "INCLINATION": 42.997, "RA_OF_ASC_NODE": 249.7587, "ARG_OF_PERICENTER": 232.3097, "MEAN_ANOMALY": 127.7663, "EPHEMERIS_TYPE": 0, "CLASSIFICATION_TYPE": "U", "NORAD_CAT_ID": 66809, "ELEMENT_SET_NO": 999, "REV_AT_EPOCH": 189, "BSTAR": -0.00075235517, "MEAN_MOTION_DOT": -0.001954, "MEAN_MOTION_DDOT": 0}, "tle": {"line1": "1 66809U 25278U   25347.10448598 -.00195400  00000+0 -75236-3 0  9999", "line2": "2 66809  42.9970 249.7587 0001253 232.3097 127.7663 15.86787624  1895"}}, "geometry": {"type": "Point", "coordinates": [-177.31899736419982, -39.66803847011647]}}, {"type": "Feature", "properties": {"norad_id": 66810, "name": "STARLINK-36046", "group": "last-30-days", "lat": -36.89322146120432, "lon": -168.1297274127161, "alt_km": 301.14255593895996, "timestamp": "2025-12-13T18:50:03.174157+00:00", "meta": {"OBJECT_NAME": "STARLINK-36046", "OBJECT_ID": "2025-278V", "EPOCH": "2025-12-13T01:00:19.749600", "MEAN_MOTION": 15.89788073, "ECCENTRICITY": 0.00029914, "INCLINATION": 42.9974, "RA_OF_ASC_NODE": 250.1521, "ARG_OF_PERICENTER": 285.6834, "MEAN_ANOMALY": 74.371, "EPHEMERIS_TYPE": 0, "CLASSIFICATION_TYPE": "U", "NORAD_CAT_ID": 66810, "ELEMENT_SET_NO": 999, "REV_AT_EPOCH": 188, "BSTAR": 0.0022644771, "MEAN_MOTION_DOT": 0.00758232, "MEAN_MOTION_DDOT": 0}, "tle": {"line1": "1 66810U 25278V   25347.04189525  .00758232  00000+0  22645-2 0  9997", "line2": "2 66810  42.9974 250.1521 0002991 285.6834  74.3710 15.89788073  1886"}}, "geometry": {"type": "Point", "coordinates": [-168.1297274127161, -36.89322146120432]}}, {"type": "Feature", "properties": {"norad_id": 66811, "name": "STARLINK-36045", "group": "last-30-days", "lat": -35.52566134765558, "lon": -164.48853486686664, "alt_km": 292.3587390616203, "timestamp": "2025-12-13T18:50:03.174166+00:00", "meta": {"OBJECT_NAME": "STARLINK-36045", "OBJECT_ID": "2025-278W", "EPOCH": "2025-12-13T01:00:27.694944", "MEAN_MOTION": 15.89484454, "ECCENTRICITY": 0.00029504, "INCLINATION": 42.997, "RA_OF_ASC_NODE": 250.1519, "ARG_OF_PERICENTER": 282.9701, "MEAN_ANOMALY": 77.0844, "EPHEMERIS_TYPE": 0, "CLASSIFICATION_TYPE": "U", "NORAD_CAT_ID": 66811, "ELEMENT_SET_NO": 999, "REV_AT_EPOCH": 188, "BSTAR": 0.0092253817, "MEAN_MOTION_DOT": 0.03295879, "MEAN_MOTION_DDOT": 0}, "tle": {"line1": "1 66811U 25278W   25347.04198721  .03295879  00000+0  92254-2 0  9995", "line2": "2 66811  42.9970 250.1519 0002950 282.9701  77.0844 15.89484454  1882"}}, "geometry": {"type": "Point", "coordinates": [-164.48853486686664, -35.52566134765558]}}, {"type": "Feature", "properties": {"norad_id": 66812, "name": "STARLINK-36054", "group": "last-30-days", "lat": -39.151517514343986, "lon": -175.3501593120614, "alt_km": 315.39644246756507, "timestamp": "2025-12-13T18:50:03.174176+00:00", "meta": {"OBJECT_NAME": "STARLINK-36054", "OBJECT_ID": "2025-278X", "EPOCH": "2025-12-13T00:59:17.520000", "MEAN_MOTION": 15.86937598, "ECCENTRICITY": 0.00028433, "INCLINATION": 42.9974, "RA_OF_ASC_NODE": 250.1444, "ARG_OF_PERICENTER": 236.1204, "MEAN_ANOMALY": 123.94, "EPHEMERIS_TYPE": 0, "CLASSIFICATION_TYPE": "U", "NORAD_CAT_ID": 66812, "ELEMENT_SET_NO": 999, "REV_AT_EPOCH": 188, "BSTAR": -0.0023443986, "MEAN_MOTION_DOT": -0.00586394, "MEAN_MOTION_DDOT": 0}, "tle": {"line1": "1 66812U 25278X   25347.04117500 -.00586394  00000+0 -23444-2 0  9991", "line2": "2 66812  42.9974 250.1444 0002843 236.1204 123.9400 15.86937598  1882"}}, "geometry": {"type": "Point", "coordinates": [-175.3501593120614, -39.151517514343986]}}, {"type": "Feature", "properties": {"norad_id": 66813, "name": "STARLINK-36042", "group": "last-30-days", "lat": -39.35831514369244, "lon": -176.11780672545353, "alt_km": 314.48056456629365, "timestamp": "2025-12-13T18:50:03.174188+00:00", "meta": {"OBJECT_NAME": "STARLINK-36042", "OBJECT_ID": "2025-278Y", "EPOCH": "2025-12-13T02:29:58.694784", "MEAN_MOTION": 15.86566064, "ECCENTRICITY": 0.00031581, "INCLINATION": 42.9975, "RA_OF_ASC_NODE": 249.7571, "ARG_OF_PERICENTER": 285.3486, "MEAN_ANOMALY": 74.7038, "EPHEMERIS_TYPE": 0, "CLASSIFICATION_TYPE": "U", "NORAD_CAT_ID": 66813, "ELEMENT_SET_NO": 999, "REV_AT_EPOCH": 189, "BSTAR": -0.0015776511, "MEAN_MOTION_DOT": -0.00395955, "MEAN_MOTION_DDOT": 0}, "tle": {"line1": "1 66813U 25278Y   25347.10415156 -.00395955  00000+0 -15777-2 0  9998", "line2": "2 66813  42.9975 249.7571 0003158 285.3486  74.7038 15.86566064  1894"}}, "geometry": {"type": "Point", "coordinates": [-176.11780672545353, -39.35831514369244]}}, {"type": "Feature", "properties": {"norad_id": 66814, "name": "STARLINK-35984", "group": "last-30-days", "lat": -27.031267561575284, "lon": -147.71540973252, "alt_km": 307.54925213292154, "timestamp": "2025-12-13T18:50:03.174201+00:00", "meta": {"OBJECT_NAME": "STARLINK-35984", "OBJECT_ID": "2025-278Z", "EPOCH": "2025-12-12T05:17:39.039072", "MEAN_MOTION": 15.89263924, "ECCENTRICITY": 0.00022268, "INCLINATION": 42.9971, "RA_OF_ASC_NODE": 255.1754, "ARG_OF_PERICENTER": 272.7868, "MEAN_ANOMALY": 87.2751, "EPHEMERIS_TYPE": 0, "CLASSIFICATION_TYPE": "U", "NORAD_CAT_ID": 66814, "ELEMENT_SET_NO": 999, "REV_AT_EPOCH": 175, "BSTAR": -0.00078876214, "MEAN_MOTION_DOT": -0.00230906, "MEAN_MOTION_DDOT": 0}, "tle": {"line1": "1 66814U 25278Z   25346.22059073 -.00230906  00000+0 -78876-3 0  9997", "line2": "2 66814  42.9971 255.1754 0002226 272.7868  87.2751 15.89263924  1752"}}, "geometry": {"type": "Point", "coordinates": [-147.71540973252, -27.031267561575284]}}]}